{
    "CCSDS_OMM_VERS": "3.0",
    "COMMENT": "GENERATED VIA SPACE-TRACK.ORG API",
    "CREATION_DATE": "2025-11-23T21:08:43",
    "ORIGINATOR": "18 SPCS",
    "OBJECT_NAME": "COSMOS 2544 (GLONASS)",
    "OBJECT_ID": "2019-088A",
    "CENTER_NAME": "EARTH",
    "REF_FRAME": "TEME",
    "TIME_SYSTEM": "UTC",
    "MEAN_ELEMENT_THEORY": "SGP4",
    "EPOCH": "2025-11-22T13:18:07.384896",
    "MEAN_MOTION": "2.13101971",
    "ECCENTRICITY": "0.00133383",
    "INCLINATION": "65.4495",
    "RA_OF_ASC_NODE": "80.6335",
    "ARG_OF_PERICENTER": "247.7340",
    "MEAN_ANOMALY": "112.1174",
    "EPHEMERIS_TYPE": "0",
    "CLASSIFICATION_TYPE": "U",
    "NORAD_CAT_ID": "44850",
    "ELEMENT_SET_NO": "999",
    "REV_AT_EPOCH": "4631",
    "BSTAR": "0.00000000000000",
    "MEAN_MOTION_DOT": "-0.00000002",
    "MEAN_MOTION_DDOT": "0.0000000000000",
    "SEMIMAJOR_AXIS": "25508.027",
    "PERIOD": "675.733",
    "APOAPSIS": "19163.915",
    "PERIAPSIS": "19095.868",
    "OBJECT_TYPE": "PAYLOAD",
    "RCS_SIZE": "LARGE",
    "COUNTRY_CODE": "CIS",
    "LAUNCH_DATE": "2019-12-11",
    "SITE": "PKMTR",
    "DECAY_DATE": null,
    "FILE": "4896238",
    "GP_ID": "303334463",
    "TLE_LINE0": "0 COSMOS 2544 (GLONASS)",
    "TLE_LINE1": "1 44850U 19088A   25326.55425214 -.00000002  00000-0  00000-0 0  9996",
    "TLE_LINE2": "2 44850  65.4495  80.6335 0013338 247.7340 112.1174  2.13101971 46312"
}